NORAD_CAT_ID,OBJECT_NAME,OBJECT_TYPE,EPOCH,MEAN_MOTION,ECCENTRICITY,INCLINATION,RA_OF_ASC_NODE,ARG_OF_PERICENTER,MEAN_ANOMALY,BSTAR,MEAN_MOTION_DOT,MEAN_MOTION_DDOT,TLE_LINE0,TLE_LINE1,TLE_LINE2,SEMIMAJOR_AXIS,PERIOD,APOGEE,PERIGEE,DECAYED
51887.0,STARLINK-3551,PAYLOAD,2023-03-19 13:17:58,15.08848177,0.0001549,53.217,194.975,116.9388,243.1762,5.1112e-05,5.26e-06,0.0,0 STARLINK-3551,1 51887U 22022AM  23078.55414494  .00000526  00000-0  51112-4 0  9990,2 51887  53.2170 194.9750 0001549 116.9388 243.1762 15.08848177 59276,6917.855,95.437,540.792,538.649,0.0
51887.0,STARLINK-3551,PAYLOAD,2023-03-19 18:04:07,15.0885051,0.0001479,53.2163,194.0812,108.0815,252.0338,0.0003891,5.912e-05,0.0,0 STARLINK-3551,1 51887U 22022AM  23078.75286468  .00005912  00000-0  38910-3 0  9994,2 51887  53.2163 194.0812 0001479 108.0815 252.0338 15.08850510 59303,6917.848,95.437,540.736,538.69,0.0
51887.0,STARLINK-3551,PAYLOAD,2023-03-20 00:25:40,15.08843788,0.00013,53.216,192.8917,98.9269,261.1871,0.00048269,7.403e-05,0.0,0 STARLINK-3551,1 51887U 22022AM  23079.01782650  .00007403  00000-0  48269-3 0  9993,2 51887  53.2160 192.8917 0001300  98.9269 261.1871 15.08843788 59341,6917.869,95.437,540.633,538.834,0.0
51887.0,STARLINK-3551,PAYLOAD,2023-03-20 13:08:45,15.0883051,0.0001207,53.2155,190.5131,107.7066,252.4058,0.00022127,3.235e-05,0.0,0 STARLINK-3551,1 51887U 22022AM  23079.54775426  .00003235  00000-0  22127-3 0  9998,2 51887  53.2155 190.5131 0001207 107.7066 252.4058 15.08830510 59426,6917.909,95.438,540.609,538.939,0.0
51887.0,STARLINK-3551,PAYLOAD,2023-03-20 14:44:09,15.08835939,0.0001313,53.2164,190.2172,106.9013,253.2123,0.00047322,7.251e-05,0.0,0 STARLINK-3551,1 51887U 22022AM  23079.61399444  .00007251  00000-0  47322-3 0  9994,2 51887  53.2164 190.2172 0001313 106.9013 253.2123 15.08835939 59432,6917.893,95.438,540.666,538.849,0.0
51887.0,STARLINK-3551,PAYLOAD,2023-03-20 19:30:18,15.08843593,0.0001357,53.2162,189.3254,96.687,263.4277,0.0015943,0.00025179,0.0,0 STARLINK-3551,1 51887U 22022AM  23079.81271586  .00025179  00000-0  15943-2 0  9994,2 51887  53.2162 189.3254 0001357  96.6870 263.4277 15.08843593 59465,6917.869,95.437,540.673,538.796,0.0
51887.0,STARLINK-3551,PAYLOAD,2023-03-21 12:59:33,15.0884736,0.0001614,53.2153,186.0525,60.6479,299.4675,0.0014574,0.00022987,0.0,0 STARLINK-3551,1 51887U 22022AM  23080.54136071  .00022987  00000-0  14574-2 0  9998,2 51887  53.2153 186.0525 0001614  60.6479 299.4675 15.08847360 59571,6917.858,95.437,540.839,538.606,0.0
51887.0,STARLINK-3551,PAYLOAD,2023-03-22 00:07:15,15.08851078,0.0001483,53.214,183.9718,66.2522,293.8625,0.00095114,0.00014886,0.0,0 STARLINK-3551,1 51887U 22022AM  23081.00503892  .00014886  00000-0  95114-3 0  9998,2 51887  53.2140 183.9718 0001483  66.2522 293.8625 15.08851078 59644,6917.847,95.437,540.737,538.686,0.0
51887.0,STARLINK-3551,PAYLOAD,2023-03-22 12:50:20,15.08838199,0.0001622,53.2159,181.5909,81.1903,278.9273,0.00052073,8.009e-05,0.0,0 STARLINK-3551,1 51887U 22022AM  23081.53496298  .00008009  00000-0  52073-3 0  9994,2 51887  53.2159 181.5909 0001622  81.1903 278.9273 15.08838199 59725,6917.886,95.438,540.873,538.629,0.0
51887.0,STARLINK-3551,PAYLOAD,2023-03-22 14:25:43,15.08849182,0.0001513,53.2161,181.2887,77.0149,283.1012,0.00030592,4.585e-05,0.0,0 STARLINK-3551,1 51887U 22022AM  23081.60119632  .00004585  00000-0  30592-3 0  9993,2 51887  53.2161 181.2887 0001513  77.0149 283.1012 15.08849182 59739,6917.852,95.437,540.764,538.671,0.0
51887.0,STARLINK-3551,PAYLOAD,2023-03-23 12:41:06,15.08852552,0.0001424,53.2158,177.1338,78.8262,281.289,0.00020546,2.985e-05,0.0,0 STARLINK-3551,1 51887U 22022AM  23082.52855320  .00002985  00000-0  20546-3 0  9996,2 51887  53.2158 177.1338 0001424  78.8262 281.2890 15.08852552 59879,6917.842,95.437,540.692,538.722,0.0
51887.0,STARLINK-3551,PAYLOAD,2023-03-23 23:48:48,15.08865499,0.0001433,53.216,175.0509,82.9459,277.1696,0.00044602,6.822e-05,0.0,0 STARLINK-3551,1 51887U 22022AM  23082.99222397  .00006822  00000-0  44602-3 0  9992,2 51887  53.2160 175.0509 0001433  82.9459 277.1696 15.08865499 59943,6917.802,95.436,540.659,538.676,0.0
51887.0,STARLINK-3551,PAYLOAD,2023-03-24 06:10:19,15.08892239,0.0001461,53.2159,173.8613,81.7307,278.3851,0.00097616,0.00015304,0.0,0 STARLINK-3551,1 51887U 22022AM  23083.25717440  .00015304  00000-0  97616-3 0  9998,2 51887  53.2159 173.8613 0001461  81.7307 278.3851 15.08892239 59985,6917.721,95.434,540.596,538.575,0.0
51887.0,STARLINK-3551,PAYLOAD,2023-03-24 10:56:28,15.08920825,0.0001288,53.2149,172.9718,77.7382,282.3754,0.0021556,0.00034262,0.0,0 STARLINK-3551,1 51887U 22022AM  23083.45588686  .00034262  00000-0  21556-2 0  9991,2 51887  53.2149 172.9718 0001288  77.7382 282.3754 15.08920825 60011,6917.633,95.432,540.389,538.607,0.0
51887.0,STARLINK-3551,PAYLOAD,2023-03-24 17:17:59,15.08929538,0.0001822,53.2159,171.7713,127.889,232.2267,0.0017379,0.00027547,0.0,0 STARLINK-3551,1 51887U 22022AM  23083.72082899  .00027547  00000-0  17379-2 0  9992,2 51887  53.2159 171.7713 0001822 127.8890 232.2267 15.08929538 60056,6917.607,95.432,540.732,538.211,0.0
51887.0,STARLINK-3551,PAYLOAD,2023-03-25 10:47:13,15.08859587,0.000145,53.2162,168.508,99.1886,260.927,-0.00051121,-8.419e-05,0.0,0 STARLINK-3551,1 51887U 22022AM  23084.44946725 -.00008419  00000-0 -51121-3 0  9992,2 51887  53.2162 168.5080 0001450  99.1886 260.9270 15.08859587 60164,6917.821,95.436,540.689,538.682,0.0
51887.0,STARLINK-3551,PAYLOAD,2023-03-25 21:54:56,15.08846924,0.0001261,53.2148,166.4269,73.9809,286.1322,0.00014724,2.057e-05,0.0,0 STARLINK-3551,1 51887U 22022AM  23084.91315009  .00002057  00000-0  14724-3 0  9997,2 51887  53.2148 166.4269 0001261  73.9809 286.1322 15.08846924 60236,6917.859,95.437,540.597,538.852,0.0
51887.0,STARLINK-3551,PAYLOAD,2023-03-26 04:16:29,15.08825706,0.0002866,53.216,165.2392,88.8626,271.2694,-6.4805e-05,-1.319e-05,0.0,0 STARLINK-3551,1 51887U 22022AM  23085.17812160 -.00001319  00000-0 -64805-4 0  9994,2 51887  53.2160 165.2392 0002866  88.8626 271.2694 15.08825706 60274,6917.924,95.438,541.772,537.806,0.0
51887.0,STARLINK-3551,PAYLOAD,2023-03-26 12:13:26,15.08783795,0.0001254,53.2154,163.7492,88.8206,271.293,-0.00071329,-0.00011604,0.0,0 STARLINK-3551,1 51887U 22022AM  23085.50933524 -.00011604  00000-0 -71329-3 0  9995,2 51887  53.2154 163.7492 0001254  88.8206 271.2930 15.08783795 60325,6918.052,95.441,540.785,539.05,0.0
51887.0,STARLINK-3551,PAYLOAD,2023-03-26 21:45:46,15.08795713,9.45e-05,53.2161,161.9673,84.6974,275.4126,0.00028272,4.209e-05,0.0,0 STARLINK-3551,1 51887U 22022AM  23085.90678918  .00004209  00000-0  28272-3 0  9992,2 51887  53.2161 161.9673 0000945  84.6974 275.4126 15.08795713 60388,6918.016,95.44,540.535,539.227,0.0
51887.0,STARLINK-3551,PAYLOAD,2023-03-27 04:07:19,15.0881551,9.84e-05,53.2159,160.7788,71.3557,288.7542,0.0012584,0.00019783,0.0,0 STARLINK-3551,1 51887U 22022AM  23086.17175312  .00019783  00000-0  12584-2 0  9993,2 51887  53.2159 160.7788 0000984  71.3557 288.7542 15.08815510 60424,6917.955,95.439,540.501,539.14,0.0
51887.0,STARLINK-3551,PAYLOAD,2023-03-27 10:28:51,15.08826443,0.0001357,53.2148,159.5883,73.0259,287.0881,0.00055189,8.503e-05,0.0,0 STARLINK-3551,1 51887U 22022AM  23086.43671087  .00008503  00000-0  55189-3 0  9999,2 51887  53.2148 159.5883 0001357  73.0259 287.0881 15.08826443 60466,6917.922,95.438,540.726,538.848,0.0
51887.0,STARLINK-3551,PAYLOAD,2023-03-27 21:36:34,15.08828663,0.0001429,53.2152,157.5066,99.0481,261.0673,0.00062328,9.642e-05,0.0,0 STARLINK-3551,1 51887U 22022AM  23086.90039705  .00009642  00000-0  62328-3 0  9994,2 51887  53.2152 157.5066 0001429  99.0481 261.0673 15.08828663 60532,6917.915,95.438,540.769,538.791,0.0
51887.0,STARLINK-3551,PAYLOAD,2023-03-28 05:33:30,15.08823049,0.0001524,53.216,156.0196,89.2132,270.9035,0.00043016,6.562e-05,0.0,0 STARLINK-3551,1 51887U 22022AM  23087.23160235  .00006562  00000-0  43016-3 0  9995,2 51887  53.2160 156.0196 0001524  89.2132 270.9035 15.08823049 60588,6917.932,95.439,540.851,538.743,0.0
51887.0,STARLINK-3551,PAYLOAD,2023-03-28 11:55:02,15.08823855,0.0001344,53.216,154.8297,91.5809,268.5337,0.00047084,7.21e-05,0.0,0 STARLINK-3551,1 51887U 22022AM  23087.49656249  .00007210  00000-0  47084-3 0  9998,2 51887  53.2160 154.8297 0001344  91.5809 268.5337 15.08823855 60621,6917.93,95.439,540.725,538.865,0.0
51887.0,STARLINK-3551,PAYLOAD,2023-03-29 11:45:50,15.08838259,0.0001429,53.2158,150.3689,92.9728,267.1428,0.00013993,1.94e-05,0.0,0 STARLINK-3551,1 51887U 22022AM  23088.49016368  .00001940  00000-0  13993-3 0  9997,2 51887  53.2158 150.3689 0001429  92.9728 267.1428 15.08838259 60779,6917.886,95.438,540.739,538.762,0.0
51887.0,STARLINK-3551,PAYLOAD,2023-03-29 21:18:09,15.08838999,0.0001362,53.2158,148.5846,96.0129,264.1018,0.00018104,2.594e-05,0.0,0 STARLINK-3551,1 51887U 22022AM  23088.88760482  .00002594  00000-0  18104-3 0  9998,2 51887  53.2158 148.5846 0001362  96.0129 264.1018 15.08838999 60839,6917.883,95.438,540.691,538.806,0.0
51887.0,STARLINK-3551,PAYLOAD,2023-03-30 21:08:56,15.08842507,0.0001349,53.2135,144.1255,88.1751,271.9395,0.00024116,3.552e-05,0.0,0 STARLINK-3551,1 51887U 22022AM  23089.88120579  .00003552  00000-0  24116-3 0  9991,2 51887  53.2135 144.1255 0001349  88.1751 271.9395 15.08842507 60988,6917.873,95.437,540.671,538.805,0.0
51887.0,STARLINK-3551,PAYLOAD,2023-04-01 03:21:15,15.08839258,0.0001322,53.2137,138.4738,92.9958,267.1185,6.5685e-05,7.58e-06,0.0,0 STARLINK-3551,1 51887U 22022AM  23091.13976807  .00000758  00000-0  65685-4 0  9997,2 51887  53.2137 138.4738 0001322  92.9958 267.1185 15.08839258 61170,6917.883,95.438,540.662,538.833,0.0
51887.0,STARLINK-3551,PAYLOAD,2023-04-01 09:42:48,15.08835796,0.0001369,53.2144,137.284,91.5493,268.5656,-4.4393e-05,-9.94e-06,0.0,0 STARLINK-3551,1 51887U 22022AM  23091.40472994 -.00000994  00000-0 -44393-4 0  9992,2 51887  53.2144 137.2840 0001369  91.5493 268.5656 15.08835796 61215,6917.893,95.438,540.705,538.811,0.0
